{
    "links": {
        "self": "http://www.neowsapp.com/rest/v1/neo/3666973?api_key=iIulBulltgU6a56xZRHN4H3l9WmuAYTsLGpBGhQ2"
    },
    "id": "3666973",
    "neo_reference_id": "3666973",
    "name": "(2014 GQ1)",
    "designation": "2014 GQ1",
    "nasa_jpl_url": "http://ssd.jpl.nasa.gov/sbdb.cgi?sstr=3666973",
    "absolute_magnitude_h": 21.7,
    "estimated_diameter": {
        "kilometers": {
            "estimated_diameter_min": 0.1214940408,
            "estimated_diameter_max": 0.2716689341
        },
        "meters": {
            "estimated_diameter_min": 121.4940407996,
            "estimated_diameter_max": 271.6689340891
        },
        "miles": {
            "estimated_diameter_min": 0.0754928736,
            "estimated_diameter_max": 0.1688071972
        },
        "feet": {
            "estimated_diameter_min": 398.6025088171,
            "estimated_diameter_max": 891.3023057169
        }
    },
    "is_potentially_hazardous_asteroid": false,
    "close_approach_data": [
        {
            "close_approach_date": "1998-04-07",
            "close_approach_date_full": "1998-Apr-07 03:48",
            "epoch_date_close_approach": 891920880000,
            "relative_velocity": {
                "kilometers_per_second": "18.479677989",
                "kilometers_per_hour": "66526.8407603633",
                "miles_per_hour": "41337.1916935713"
            },
            "miss_distance": {
                "astronomical": "0.15894523",
                "lunar": "61.82969447",
                "kilometers": "23777867.8546601",
                "miles": "14774881.96450538"
            },
            "orbiting_body": "Earth"
        },
        {
            "close_approach_date": "2014-04-05",
            "close_approach_date_full": "2014-Apr-05 06:55",
            "epoch_date_close_approach": 1396680900000,
            "relative_velocity": {
                "kilometers_per_second": "17.6528686448",
                "kilometers_per_hour": "63550.3271211155",
                "miles_per_hour": "39487.7018714509"
            },
            "miss_distance": {
                "astronomical": "0.1302210471",
                "lunar": "50.6559873219",
                "kilometers": "19480791.275329677",
                "miles": "12104802.3913444626"
            },
            "orbiting_body": "Earth"
        },
        {
            "close_approach_date": "2030-04-04",
            "close_approach_date_full": "2030-Apr-04 08:23",
            "epoch_date_close_approach": 1901521380000,
            "relative_velocity": {
                "kilometers_per_second": "17.3356294493",
                "kilometers_per_hour": "62408.2660176308",
                "miles_per_hour": "38778.0695152329"
            },
            "miss_distance": {
                "astronomical": "0.1303886179",
                "lunar": "50.7211723631",
                "kilometers": "19505859.510083873",
                "miles": "12120379.0701205274"
            },
            "orbiting_body": "Earth"
        }
    ],
    "orbital_data": {
        "orbit_id": "17",
        "orbit_determination_date": "2017-04-06 08:41:45",
        "first_observation_date": "2014-04-02",
        "last_observation_date": "2014-05-07",
        "data_arc_in_days": 35,
        "observations_used": 81,
        "orbit_uncertainty": "7",
        "minimum_orbit_intersection": ".112924",
        "jupiter_tisserand_invariant": "3.380",
        "epoch_osculation": "2459000.5",
        "eccentricity": ".5680009942600197",
        "semi_major_axis": "2.169937306051661",
        "inclination": "22.50316183360592",
        "ascending_node_longitude": "22.06596759528783",
        "orbital_period": "1167.533112368374",
        "perihelion_distance": ".937410758732409",
        "perihelion_argument": "117.9430604795652",
        "aphelion_distance": "3.402463853370914",
        "perihelion_time": "2459046.596962726532",
        "mean_anomaly": "345.7863503777737",
        "mean_motion": ".3083424325925368",
        "equinox": "J2000",
        "orbit_class": {
            "orbit_class_type": "APO",
            "orbit_class_description": "Near-Earth asteroid orbits which cross the Earth’s orbit similar to that of 1862 Apollo",
            "orbit_class_range": "a (semi-major axis) > 1.0 AU; q (perihelion) < 1.017 AU"
        }
    },
    "is_sentry_object": false
}